{"features": [{"geometry": {"type": "Point", "coordinates": [82.11775800000004, 16.516050000000057]}, "id": 32, "type": "Feature", "properties": {"name_1": "Pedaraghavulupeta", "villcodein": "587900", "project": "NCRMP", "stcodeap": "28", "villcodeap": "008", "created_at": 1771592008000, "plinth_are": "6666.95000000", "long": "82.11775800", "dstcodeap": "08", "district_name": "Konaseema", "dmcodeap": "0814", "dmcodeind": "74704942", "building_c": "Good", "mndcodeind_legacy": "04942", "state": "Andhra Pradesh", "village": "Nimmakayala Kothapalle", "dmvcodeap": "0814008", "revenuediv": "Amalapuram", "lat": "16.51605000", "district_code_28_legacy": "08", "symbolid": 0, "work_id": "140103.00000000", "folderpath": "NCRMP/East Godavari", "dstcodeind_legacy": "747", "habitation": "Pedaraghavulupeta", "mandal_1_legacy": "Uppalaguptam", "capacity_n": "829.00000000", "id_cy": "437", "type_desig": " Type - C", "mpcs_contr": "Village Organisation,", "mndcodeap": "14", "year_const": "2013", "district": "Dr.B.R.Ambedkar Konaseema", "name": "Pedaraghavulupeta", "stcodeind": "28", "source_table": "cyclone_shelters_ap", "district_28_legacy": "Konaseema", "district_lgd": 747, "objectid": 32, "mandal": "Uppalaguptham"}}, {"geometry": {"type": "Point", "coordinates": [82.22250400000007, 16.542736000000044]}, "id": 33, "type": "Feature", "properties": {"name_1": "Neellarevu-1", "villcodein": "587914", "project": "NCRMP", "stcodeap": "28", "villcodeap": "012", "created_at": 1771592008000, "plinth_are": "4157.60000000", "long": "82.22250400", "dstcodeap": "08", "district_name": "Konaseema", "dmcodeap": "0813", "dmcodeind": "74704943", "building_c": "Good", "mndcodeind_legacy": "04943", "state": "Andhra Pradesh", "village": "Pallamkurru", "dmvcodeap": "0813012", "revenuediv": "Amalapuram", "lat": "16.54273600", "district_code_28_legacy": "08", "symbolid": 0, "work_id": "140104.00000000", "folderpath": "NCRMP/East Godavari", "dstcodeind_legacy": "747", "habitation": "Neellarevu-1", "mandal_1_legacy": "Katrenikona", "capacity_n": "325.00000000", "id_cy": "438", "type_desig": " Type - A", "mpcs_contr": "Village Organisation,", "mndcodeap": "13", "year_const": "2015", "district": "Dr.B.R.Ambedkar Konaseema", "name": "Neellarevu-1", "stcodeind": "28", "source_table": "cyclone_shelters_ap", "district_28_legacy": "Konaseema", "district_lgd": 747, "objectid": 33, "mandal": "Katrenikona"}}, {"geometry": {"type": "Point", "coordinates": [82.17155300000006, 16.516647000000027]}, "id": 34, "type": "Feature", "properties": {"name_1": "Chirrayanam", "villcodein": "587917", "project": "NCRMP", "stcodeap": "28", "villcodeap": "014", "created_at": 1771592008000, "plinth_are": "7173.07000000", "long": "82.17155300", "dstcodeap": "08", "district_name": "Konaseema", "dmcodeap": "0813", "dmcodeind": "74704943", "building_c": "Good", "mndcodeind_legacy": "04943", "state": "Andhra Pradesh", "village": "Chirrayanam", "dmvcodeap": "0813014", "revenuediv": "Amalapuram", "lat": "16.51664700", "district_code_28_legacy": "08", "symbolid": 0, "work_id": "140105.00000000", "folderpath": "NCRMP/East Godavari", "dstcodeind_legacy": "747", "habitation": "Chirrayanam", "mandal_1_legacy": "Katrenikona", "capacity_n": "967.00000000", "id_cy": "439", "type_desig": " Type - D", "mpcs_contr": "Village Organisation,", "mndcodeap": "13", "year_const": "2015", "district": "Dr.B.R.Ambedkar Konaseema", "name": "Chirrayanam", "stcodeind": "28", "source_table": "cyclone_shelters_ap", "district_28_legacy": "Konaseema", "district_lgd": 747, "objectid": 34, "mandal": "Katrenikona"}}, {"geometry": {"type": "Point", "coordinates": [82.01108300000003, 16.441128000000052]}, "id": 35, "type": "Feature", "properties": {"name_1": "Rameswaram", "villcodein": "587872", "project": "NCRMP", "stcodeap": "28", "villcodeap": "013", "created_at": 1771592008000, "plinth_are": "4157.60000000", "long": "82.01108300", "dstcodeap": "08", "district_name": "Konaseema", "dmcodeap": "0822", "dmcodeind": "74704940", "building_c": "Good", "mndcodeind_legacy": "04940", "state": "Andhra Pradesh", "village": "Komaragiripatnam", "dmvcodeap": "0822013", "revenuediv": "Amalapuram", "lat": "16.44112800", "district_code_28_legacy": "08", "symbolid": 0, "work_id": "140106.00000000", "folderpath": "NCRMP/East Godavari", "dstcodeind_legacy": "747", "habitation": "Rameswaram", "mandal_1_legacy": "Allavaram", "capacity_n": "325.00000000", "id_cy": "440", "type_desig": " Type - A", "mpcs_contr": "Village Organisation,", "mndcodeap": "22", "year_const": "2015", "district": "Dr.B.R.Ambedkar Konaseema", "name": "Rameswaram", "stcodeind": "28", "source_table": "cyclone_shelters_ap", "district_28_legacy": "Konaseema", "district_lgd": 747, "objectid": 35, "mandal": "Allavaram"}}, {"geometry": {"type": "Point", "coordinates": [82.04211300000009, 16.473817000000135]}, "id": 36, "type": "Feature", "properties": {"name_1": "Samanthakurru", "villcodein": "587873", "project": "NCRMP", "stcodeap": "28", "villcodeap": "012", "created_at": 1771592008000, "plinth_are": "5077.90000000", "long": "82.04211300", "dstcodeap": "08", "district_name": "Konaseema", "dmcodeap": "0822", "dmcodeind": "74704940", "building_c": "Good", "mndcodeind_legacy": "04940", "state": "Andhra Pradesh", "village": "Samanthakuru", "dmvcodeap": "0822012", "revenuediv": "Amalapuram", "lat": "16.47381700", "district_code_28_legacy": "08", "symbolid": 0, "work_id": "140107.00000000", "folderpath": "NCRMP/East Godavari", "dstcodeind_legacy": "747", "habitation": "Samanthakurru", "mandal_1_legacy": "Allavaram", "capacity_n": "484.00000000", "id_cy": "441", "type_desig": " Type - B", "mpcs_contr": "Village Organisation,", "mndcodeap": "22", "year_const": "2015", "district": "Dr.B.R.Ambedkar Konaseema", "name": "Samanthakurru", "stcodeind": "28", "source_table": "cyclone_shelters_ap", "district_28_legacy": "Konaseema", "district_lgd": 747, "objectid": 36, "mandal": "Allavaram"}}, {"geometry": {"type": "Point", "coordinates": [81.79965600000007, 16.36129200000007]}, "id": 37, "type": "Feature", "properties": {"name_1": "Kesavadasupalem", "villcodein": "587859", "project": "NCRMP", "stcodeap": "28", "villcodeap": "007", "created_at": 1771592008000, "plinth_are": "7173.07000000", "long": "81.79965600", "dstcodeap": "08", "district_name": "Konaseema", "dmcodeap": "0818", "dmcodeind": "74704939", "building_c": "Good", "mndcodeind_legacy": "04939", "state": "Andhra Pradesh", "village": "Kesavadasupalem", "dmvcodeap": "0818007", "revenuediv": "Amalapuram", "lat": "16.36129200", "district_code_28_legacy": "08", "symbolid": 0, "work_id": "140108.00000000", "folderpath": "NCRMP/East Godavari", "dstcodeind_legacy": "747", "habitation": "Kesavadasupalem", "mandal_1_legacy": "Sakhinetipalle", "capacity_n": "967.00000000", "id_cy": "442", "type_desig": " Type - D", "mpcs_contr": "Village Organisation,", "mndcodeap": "18", "year_const": "2015", "district": "Dr.B.R.Ambedkar Konaseema", "name": "Kesavadasupalem", "stcodeind": "28", "source_table": "cyclone_shelters_ap", "district_28_legacy": "Konaseema", "district_lgd": 747, "objectid": 37, "mandal": "Sakhinetipalli"}}, {"geometry": {"type": "Point", "coordinates": [81.72937200000008, 16.323075000000074]}, "id": 38, "type": "Feature", "properties": {"name_1": "Pallipalem", "villcodein": "587858", "project": "NCRMP", "stcodeap": "28", "villcodeap": "008", "created_at": 1771592008000, "plinth_are": "7173.07000000", "long": "81.72937200", "dstcodeap": "08", "district_name": "Konaseema", "dmcodeap": "0818", "dmcodeind": "74704939", "building_c": "Good", "mndcodeind_legacy": "04939", "state": "Andhra Pradesh", "village": "Antarvedi", "dmvcodeap": "0818008", "revenuediv": "Amalapuram", "lat": "16.32307500", "district_code_28_legacy": "08", "symbolid": 0, "work_id": "140109.00000000", "folderpath": "NCRMP/East Godavari", "dstcodeind_legacy": "747", "habitation": "Pallipalem", "mandal_1_legacy": "Sakhinetipalle", "capacity_n": "967.00000000", "id_cy": "443", "type_desig": " Type - D", "mpcs_contr": "Village Organisation,", "mndcodeap": "18", "year_const": "2015", "district": "Dr.B.R.Ambedkar Konaseema", "name": "Pallipalem", "stcodeind": "28", "source_table": "cyclone_shelters_ap", "district_28_legacy": "Konaseema", "district_lgd": 747, "objectid": 38, "mandal": "Sakhinetipalli"}}, {"geometry": {"type": "Point", "coordinates": [81.87517200000009, 16.395333000000054]}, "id": 39, "type": "Feature", "properties": {"name_1": "Padamatapalem", "villcodein": "587850", "project": "NCRMP", "stcodeap": "28", "villcodeap": "010", "created_at": 1771592008000, "plinth_are": "7173.07000000", "long": "81.87517200", "dstcodeap": "08", "district_name": "Konaseema", "dmcodeap": "0819", "dmcodeind": "74704938", "building_c": "Good", "mndcodeind_legacy": "04938", "state": "Andhra Pradesh", "village": "Kesanapalle", "dmvcodeap": "0819010", "revenuediv": "Amalapuram", "lat": "16.39533300", "district_code_28_legacy": "08", "symbolid": 0, "work_id": "140110.00000000", "folderpath": "NCRMP/East Godavari", "dstcodeind_legacy": "747", "habitation": "Padamatapalem", "mandal_1_legacy": "Malikipuram", "capacity_n": "967.00000000", "id_cy": "444", "type_desig": " Type - D", "mpcs_contr": "Village Organisation,", "mndcodeap": "19", "year_const": "2015", "district": "Dr.B.R.Ambedkar Konaseema", "name": "Padamatapalem", "stcodeind": "28", "source_table": "cyclone_shelters_ap", "district_28_legacy": "Konaseema", "district_lgd": 747, "objectid": 39, "mandal": "Malkipuram"}}, {"geometry": {"type": "Point", "coordinates": [81.89574700000009, 16.39546400000013]}, "id": 40, "type": "Feature", "properties": {"name_1": "Kesanapalli", "villcodein": "587850", "project": "NCRMP", "stcodeap": "28", "villcodeap": "010", "created_at": 1771592008000, "plinth_are": "7173.07000000", "long": "81.89574700", "dstcodeap": "08", "district_name": "Konaseema", "dmcodeap": "0819", "dmcodeind": "74704938", "building_c": "Good", "mndcodeind_legacy": "04938", "state": "Andhra Pradesh", "village": "Kesanapalle", "dmvcodeap": "0819010", "revenuediv": "Amalapuram", "lat": "16.39546400", "district_code_28_legacy": "08", "symbolid": 0, "work_id": "140111.00000000", "folderpath": "NCRMP/East Godavari", "dstcodeind_legacy": "747", "habitation": "Kesanapalli", "mandal_1_legacy": "Malikipuram", "capacity_n": "967.00000000", "id_cy": "445", "type_desig": " Type - D", "mpcs_contr": "Village Organisation,", "mndcodeap": "19", "year_const": "2015", "district": "Dr.B.R.Ambedkar Konaseema", "name": "Kesanapalli", "stcodeind": "28", "source_table": "cyclone_shelters_ap", "district_28_legacy": "Konaseema", "district_lgd": 747, "objectid": 40, "mandal": "Malkipuram"}}, {"geometry": {"type": "Point", "coordinates": [81.94408600000011, 16.42129200000004]}, "id": 41, "type": "Feature", "properties": {"name_1": "Karavaka", "villcodein": "587827", "project": "NCRMP", "stcodeap": "28", "villcodeap": "017", "created_at": 1771592008000, "plinth_are": "5077.90000000", "long": "81.94408600", "dstcodeap": "08", "district_name": "Konaseema", "dmcodeap": "0821", "dmcodeind": "74704936", "building_c": "Good", "mndcodeind_legacy": "04936", "state": "Andhra Pradesh", "village": "Gogannamattam", "dmvcodeap": "0821017", "revenuediv": "Amalapuram", "lat": "16.42129200", "district_code_28_legacy": "08", "symbolid": 0, "work_id": "140119.00000000", "folderpath": "NCRMP/East Godavari", "dstcodeind_legacy": "747", "habitation": "Karavaka", "mandal_1_legacy": "Mamidikuduru", "capacity_n": "484.00000000", "id_cy": "446", "type_desig": " Type - B", "mpcs_contr": "Village Organisation,", "mndcodeap": "21", "year_const": "2015", "district": "Dr.B.R.Ambedkar Konaseema", "name": "Karavaka", "stcodeind": "28", "source_table": "cyclone_shelters_ap", "district_28_legacy": "Konaseema", "district_lgd": 747, "objectid": 41, "mandal": "Mamidikuduru"}}], "type": "FeatureCollection", "properties": {"exceededTransferLimit": false}}